LUR-1                   
1 60506U 24149AQ  26068.79566301  .00009121  00000+0  32985-3 0  9998
2 60506  97.3790 148.4255 0002777 309.1571  50.9421 15.28658648 86785
STARLINK-32371          
1 60916U 24154P   26068.87732214 -.00004119  00000+0 -12700-3 0  9993
2 60916  53.1602 282.9720 0001275  70.4855 289.6283 15.30200468 86365
